{"type": "FeatureCollection", "features": [ {"type": "Feature", "properties": {"norad_id": 66563, "name": "STARLINK-35437", "group": "last-30-days", "lat": 32.68096585324559, "lon": -79.3746212270132, "alt_km": 405.97619281189145, "timestamp": "2025-12-08T19:31:47.636756+00:00", "meta": {"OBJECT_NAME": "STARLINK-35437", "OBJECT_ID": "2025-268G", "EPOCH": "2025-12-08T06:00:02.999808", "MEAN_MOTION": 15.54792989, "ECCENTRICITY": 0.00013597, "INCLINATION": 43.0007, "RA_OF_ASC_NODE": 147.4432, "ARG_OF_PERICENTER": 270.3617, "MEAN_ANOMALY": 300.754, "EPHEMERIS_TYPE": 0, "CLASSIFICATION_TYPE": "U", "NORAD_CAT_ID": 66563, "ELEMENT_SET_NO": 999, "REV_AT_EPOCH": 394, "BSTAR": -0.033708343, "MEAN_MOTION_DOT": -0.02053856, "MEAN_MOTION_DDOT": 0}, "tle": {"line1": "1 66563U 25268G   25342.25003472 -.02053856  00000+0 -33708-1 0  9990", "line2": "2 66563  43.0007 147.4432 0001359 270.3617 300.7540 15.54792989  3945"}}, "geometry": {"type": "Point", "coordinates": [-79.3746212270132, 32.68096585324559]}}, {"type": "Feature", "properties": {"norad_id": 66564, "name": "STARLINK-35358", "group": "last-30-days", "lat": 31.717227107906343, "lon": -77.42037499288209, "alt_km": 406.05770426678737, "timestamp": "2025-12-08T19:31:47.636765+00:00", "meta": {"OBJECT_NAME": "STARLINK-35358", "OBJECT_ID": "2025-268H", "EPOCH": "2025-12-08T06:00:02.999808", "MEAN_MOTION": 15.54796958, "ECCENTRICITY": 0.00013354, "INCLINATION": 43.0001, "RA_OF_ASC_NODE": 147.4386, "ARG_OF_PERICENTER": 267.5051, "MEAN_ANOMALY": 305.5247, "EPHEMERIS_TYPE": 0, "CLASSIFICATION_TYPE": "U", "NORAD_CAT_ID": 66564, "ELEMENT_SET_NO": 999, "REV_AT_EPOCH": 389, "BSTAR": -0.033779603, "MEAN_MOTION_DOT": -0.02057985, "MEAN_MOTION_DDOT": 0}, "tle": {"line1": "1 66564U 25268H   25342.25003472 -.02057985  00000+0 -33780-1 0  9998", "line2": "2 66564  43.0001 147.4386 0001335 267.5051 305.5247 15.54796958  3893"}}, "geometry": {"type": "Point", "coordinates": [-77.42037499288209, 31.717227107906343]}}, {"type": "Feature", "properties": {"norad_id": 66565, "name": "STARLINK-35893", "group": "last-30-days", "lat": 30.72200283618629, "lon": -75.50218305536912, "alt_km": 406.1251646137516, "timestamp": "2025-12-08T19:31:47.636777+00:00", "meta": {"OBJECT_NAME": "STARLINK-35893", "OBJECT_ID": "2025-268J", "EPOCH": "2025-12-08T06:00:02.999808", "MEAN_MOTION": 15.54787847, "ECCENTRICITY": 0.00013081, "INCLINATION": 43.0001, "RA_OF_ASC_NODE": 147.4337, "ARG_OF_PERICENTER": 265.9397, "MEAN_ANOMALY": 309.0112, "EPHEMERIS_TYPE": 0, "CLASSIFICATION_TYPE": "U", "NORAD_CAT_ID": 66565, "ELEMENT_SET_NO": 999, "REV_AT_EPOCH": 394, "BSTAR": -0.033541795, "MEAN_MOTION_DOT": -0.02044419, "MEAN_MOTION_DDOT": 0}, "tle": {"line1": "1 66565U 25268J   25342.25003472 -.02044419  00000+0 -33542-1 0  9993", "line2": "2 66565  43.0001 147.4337 0001308 265.9397 309.0112 15.54787847  3948"}}, "geometry": {"type": "Point", "coordinates": [-75.50218305536912, 30.72200283618629]}}, {"type": "Feature", "properties": {"norad_id": 66566, "name": "STARLINK-35871", "group": "last-30-days", "lat": 29.701846698629332, "lon": -73.62926993723904, "alt_km": 406.2700513802338, "timestamp": "2025-12-08T19:31:47.636786+00:00", "meta": {"OBJECT_NAME": "STARLINK-35871", "OBJECT_ID": "2025-268K", "EPOCH": "2025-12-08T06:00:02.999808", "MEAN_MOTION": 15.54790101, "ECCENTRICITY": 0.00012962, "INCLINATION": 43, "RA_OF_ASC_NODE": 147.4286, "ARG_OF_PERICENTER": 265.9898, "MEAN_ANOMALY": 310.8779, "EPHEMERIS_TYPE": 0, "CLASSIFICATION_TYPE": "U", "NORAD_CAT_ID": 66566, "ELEMENT_SET_NO": 999, "REV_AT_EPOCH": 394, "BSTAR": -0.033624248, "MEAN_MOTION_DOT": -0.02049049, "MEAN_MOTION_DDOT": 0}, "tle": {"line1": "1 66566U 25268K   25342.25003472 -.02049049  00000+0 -33624-1 0  9999", "line2": "2 66566  43.0000 147.4286 0001296 265.9898 310.8779 15.54790101  3949"}}, "geometry": {"type": "Point", "coordinates": [-73.62926993723904, 29.701846698629332]}}, {"type": "Feature", "properties": {"norad_id": 66567, "name": "STARLINK-35825", "group": "last-30-days", "lat": 28.656521012400507, "lon": -71.79549105698767, "alt_km": 406.3704213449473, "timestamp": "2025-12-08T19:31:47.636796+00:00", "meta": {"OBJECT_NAME": "STARLINK-35825", "OBJECT_ID": "2025-268L", "EPOCH": "2025-12-08T06:00:02.999808", "MEAN_MOTION": 15.54794346, "ECCENTRICITY": 0.00013393, "INCLINATION": 42.9998, "RA_OF_ASC_NODE": 147.4241, "ARG_OF_PERICENTER": 262.163, "MEAN_ANOMALY": 316.6199, "EPHEMERIS_TYPE": 0, "CLASSIFICATION_TYPE": "U", "NORAD_CAT_ID": 66567, "ELEMENT_SET_NO": 999, "REV_AT_EPOCH": 394, "BSTAR": -0.033733677, "MEAN_MOTION_DOT": -0.02055314, "MEAN_MOTION_DDOT": 0}, "tle": {"line1": "1 66567U 25268L   25342.25003472 -.02055314  00000+0 -33734-1 0  9994", "line2": "2 66567  42.9998 147.4241 0001339 262.1630 316.6199 15.54794346  3941"}}, "geometry": {"type": "Point", "coordinates": [-71.79549105698767, 28.656521012400507]}}, {"type": "Feature", "properties": {"norad_id": 66568, "name": "STARLINK-35803", "group": "last-30-days", "lat": 27.584259713001046, "lon": -69.99429325371467, "alt_km": 406.55653961097323, "timestamp": "2025-12-08T19:31:47.636805+00:00", "meta": {"OBJECT_NAME": "STARLINK-35803", "OBJECT_ID": "2025-268M", "EPOCH": "2025-12-08T06:00:02.999808", "MEAN_MOTION": 15.54789347, "ECCENTRICITY": 0.00013687, "INCLINATION": 43.0001, "RA_OF_ASC_NODE": 147.4187, "ARG_OF_PERICENTER": 264.4096, "MEAN_ANOMALY": 316.2924, "EPHEMERIS_TYPE": 0, "CLASSIFICATION_TYPE": "U", "NORAD_CAT_ID": 66568, "ELEMENT_SET_NO": 999, "REV_AT_EPOCH": 394, "BSTAR": -0.03360923, "MEAN_MOTION_DOT": -0.02048227, "MEAN_MOTION_DDOT": 0}, "tle": {"line1": "1 66568U 25268M   25342.25003472 -.02048227  00000+0 -33609-1 0  9991", "line2": "2 66568  43.0001 147.4187 0001368 264.4096 316.2924 15.54789347  3948"}}, "geometry": {"type": "Point", "coordinates": [-69.99429325371467, 27.584259713001046]}}, {"type": "Feature", "properties": {"norad_id": 66569, "name": "STARLINK-35835", "group": "last-30-days", "lat": 26.490294719974, "lon": -68.2303410059232, "alt_km": 406.67483238120076, "timestamp": "2025-12-08T19:31:47.636814+00:00", "meta": {"OBJECT_NAME": "STARLINK-35835", "OBJECT_ID": "2025-268N", "EPOCH": "2025-12-08T06:00:02.999808", "MEAN_MOTION": 15.54793786, "ECCENTRICITY": 0.00013372, "INCLINATION": 43, "RA_OF_ASC_NODE": 147.4139, "ARG_OF_PERICENTER": 263.3909, "MEAN_ANOMALY": 319.2255, "EPHEMERIS_TYPE": 0, "CLASSIFICATION_TYPE": "U", "NORAD_CAT_ID": 66569, "ELEMENT_SET_NO": 999, "REV_AT_EPOCH": 394, "BSTAR": -0.033698239, "MEAN_MOTION_DOT": -0.02053348, "MEAN_MOTION_DDOT": 0}, "tle": {"line1": "1 66569U 25268N   25342.25003472 -.02053348  00000+0 -33698-1 0  9990", "line2": "2 66569  43.0000 147.4139 0001337 263.3909 319.2255 15.54793786  3944"}}, "geometry": {"type": "Point", "coordinates": [-68.2303410059232, 26.490294719974]}}, {"type": "Feature", "properties": {"norad_id": 66570, "name": "STARLINK-35834", "group": "last-30-days", "lat": 25.37497245200481, "lon": -66.4998390432944, "alt_km": 406.8823560741348, "timestamp": "2025-12-08T19:31:47.636823+00:00", "meta": {"OBJECT_NAME": "STARLINK-35834", "OBJECT_ID": "2025-268P", "EPOCH": "2025-12-08T06:00:02.999808", "MEAN_MOTION": 15.5479349, "ECCENTRICITY": 0.00014018, "INCLINATION": 43.0005, "RA_OF_ASC_NODE": 147.4086, "ARG_OF_PERICENTER": 265.1031, "MEAN_ANOMALY": 319.4301, "EPHEMERIS_TYPE": 0, "CLASSIFICATION_TYPE": "U", "NORAD_CAT_ID": 66570, "ELEMENT_SET_NO": 999, "REV_AT_EPOCH": 394, "BSTAR": -0.033683928, "MEAN_MOTION_DOT": -0.0205259, "MEAN_MOTION_DDOT": 0}, "tle": {"line1": "1 66570U 25268P   25342.25003472 -.02052590  00000+0 -33684-1 0  9995", "line2": "2 66570  43.0005 147.4086 0001401 265.1031 319.4301 15.54793490  3946"}}, "geometry": {"type": "Point", "coordinates": [-66.4998390432944, 25.37497245200481]}}, {"type": "Feature", "properties": {"norad_id": 66571, "name": "STARLINK-35836", "group": "last-30-days", "lat": 24.237079670447223, "lon": -64.79759780728774, "alt_km": 406.9136210419738, "timestamp": "2025-12-08T19:31:47.636832+00:00", "meta": {"OBJECT_NAME": "STARLINK-35836", "OBJECT_ID": "2025-268Q", "EPOCH": "2025-12-08T06:00:02.999808", "MEAN_MOTION": 15.54786496, "ECCENTRICITY": 0.00013366, "INCLINATION": 43.0005, "RA_OF_ASC_NODE": 147.4039, "ARG_OF_PERICENTER": 261.9666, "MEAN_ANOMALY": 324.4867, "EPHEMERIS_TYPE": 0, "CLASSIFICATION_TYPE": "U", "NORAD_CAT_ID": 66571, "ELEMENT_SET_NO": 999, "REV_AT_EPOCH": 394, "BSTAR": -0.033486274, "MEAN_MOTION_DOT": -0.02041324, "MEAN_MOTION_DDOT": 0}, "tle": {"line1": "1 66571U 25268Q   25342.25003472 -.02041324  00000+0 -33486-1 0  9999", "line2": "2 66571  43.0005 147.4039 0001336 261.9666 324.4867 15.54786496  3941"}}, "geometry": {"type": "Point", "coordinates": [-64.79759780728774, 24.237079670447223]}}, {"type": "Feature", "properties": {"norad_id": 66572, "name": "STARLINK-35870", "group": "last-30-days", "lat": 23.08750508217874, "lon": -63.134635359412904, "alt_km": 407.1543945509202, "timestamp": "2025-12-08T19:31:47.636841+00:00", "meta": {"OBJECT_NAME": "STARLINK-35870", "OBJECT_ID": "2025-268R", "EPOCH": "2025-12-08T06:00:02.999808", "MEAN_MOTION": 15.54792416, "ECCENTRICITY": 0.00014772, "INCLINATION": 43.0005, "RA_OF_ASC_NODE": 147.4004, "ARG_OF_PERICENTER": 262.3218, "MEAN_ANOMALY": 326.0477, "EPHEMERIS_TYPE": 0, "CLASSIFICATION_TYPE": "U", "NORAD_CAT_ID": 66572, "ELEMENT_SET_NO": 999, "REV_AT_EPOCH": 394, "BSTAR": -0.033714554, "MEAN_MOTION_DOT": -0.0205423, "MEAN_MOTION_DDOT": 0}, "tle": {"line1": "1 66572U 25268R   25342.25003472 -.02054230  00000+0 -33715-1 0  9995", "line2": "2 66572  43.0005 147.4004 0001477 262.3218 326.0477 15.54792416  3942"}}, "geometry": {"type": "Point", "coordinates": [-63.134635359412904, 23.08750508217874]}}]}